O3B MPOWER F1           
1 54755U 22174A   23293.44114578 -.00000015  00000+0  00000+0 0  9990
2 54755   0.0509  18.9283 0005199 205.0470  76.7354  5.00118348 16790
